ATLAS CENTAUR 2
1 00694U 63047A   26105.73087009  .00001864  00000+0  21823-3 0  9994
2 00694  30.3541 348.6124 0546718  46.7810 317.7144 14.12243336136862
THOR AGENA D R/B
1 00733U 64002A   26105.64144003  .00000090  00000+0  49351-4 0  9995
2 00733  99.1198 120.9907 0033476 149.4350 210.8793 14.34039154243596
SL-3 R/B
1 00877U 64053B   26105.78286627  .00000056  00000+0  35252-4 0  9991
2 00877  65.0768 222.4818 0080895 280.5860  78.6135 14.61394337272217
SL-8 R/B
1 02802U 67045B   26105.80539292  .00000177  00000+0  56770-4 0  9999
2 02802  74.0096 278.7688 0065173 277.0631  82.3118 14.45650074 94387
SL-8 R/B
1 03230U 68040B   26105.77517204  .00001814  00000+0  13540-3 0  9992
2 03230  74.0297 237.8951 0023580  46.4102 313.9038 15.03513074 95582
OAO 2
1 03597U 68110A   26105.55318995  .00000098  00000+0  31417-4 0  9995
2 03597  34.9938  59.3971 0005188 138.7807 221.3276 14.47327603 24446
ISIS 1
1 03669U 69009A   26105.09252893  .00000082  00000+0  49660-4 0  9998
2 03669  88.4468 151.3306 1707448  15.7189 349.0696 11.30422749352645
SERT 2
1 04327U 70009A   26105.73744189  .00000003  00000+0  60804-4 0  9993
2 04327  99.2805  46.8138 0005802  72.9306 347.1047 13.58734327784922
ASTEX 1
1 05560U 71089A   26105.86054860  .00000232  00000+0  59066-4 0  9998
2 05560  92.7064 163.7679 0014029 326.2044  33.8267 14.50805900867699
SL-8 R/B
1 05730U 71119B   26105.38471694  .00004520  00000+0  23712-3 0  9998
2 05730  73.8833 107.0912 0545601  65.9491 299.7755 14.38493358660761
OAO 3 (COPERNICUS)
1 06153U 72065A   26105.68434685  .00000149  00000+0  34953-4 0  9994
2 06153  35.0054  86.5328 0006045 105.2454  60.3044 14.60025950851601
ATLAS CENTAUR R/B
1 06155U 72065B   26105.65089674  .00000664  00000+0  93407-4 0  9998
2 06155  35.0013  89.1248 0033900 320.3970  39.4255 14.77789215846739
SL-8 R/B
1 08459U 75112B   26105.85611449  .00000064  00000+0  29741-4 0  9990
2 08459  74.0601 310.5444 0015057  29.4425 330.7574 14.38223242637210
