[{"OBJECT_NAME":"ATLAS CENTAUR 2","OBJECT_ID":"1963-047A","EPOCH":"2026-04-15T17:32:27.175776","MEAN_MOTION":14.12243336,"ECCENTRICITY":0.0546718,"INCLINATION":30.3541,"RA_OF_ASC_NODE":348.6124,"ARG_OF_PERICENTER":46.781,"MEAN_ANOMALY":317.7144,"EPHEMERIS_TYPE":0,"CLASSIFICATION_TYPE":"U","NORAD_CAT_ID":694,"ELEMENT_SET_NO":999,"REV_AT_EPOCH":13686,"BSTAR":0.00021823,"MEAN_MOTION_DOT":1.864e-5,"MEAN_MOTION_DDOT":0},{"OBJECT_NAME":"THOR AGENA D R/B","OBJECT_ID":"1964-002A","EPOCH":"2026-04-15T15:23:40.418592","MEAN_MOTION":14.34039154,"ECCENTRICITY":0.0033476,"INCLINATION":99.1198,"RA_OF_ASC_NODE":120.9907,"ARG_OF_PERICENTER":149.435,"MEAN_ANOMALY":210.8793,"EPHEMERIS_TYPE":0,"CLASSIFICATION_TYPE":"U","NORAD_CAT_ID":733,"ELEMENT_SET_NO":999,"REV_AT_EPOCH":24359,"BSTAR":4.9351e-5,"MEAN_MOTION_DOT":9.0e-7,"MEAN_MOTION_DDOT":0},{"OBJECT_NAME":"SL-3 R/B","OBJECT_ID":"1964-053B","EPOCH":"2026-04-15T18:47:19.645728","MEAN_MOTION":14.61394337,"ECCENTRICITY":0.0080895,"INCLINATION":65.0768,"RA_OF_ASC_NODE":222.4818,"ARG_OF_PERICENTER":280.586,"MEAN_ANOMALY":78.6135,"EPHEMERIS_TYPE":0,"CLASSIFICATION_TYPE":"U","NORAD_CAT_ID":877,"ELEMENT_SET_NO":999,"REV_AT_EPOCH":27221,"BSTAR":3.5252e-5,"MEAN_MOTION_DOT":5.6e-7,"MEAN_MOTION_DDOT":0},{"OBJECT_NAME":"SL-8 R/B","OBJECT_ID":"1967-045B","EPOCH":"2026-04-15T19:19:45.948288","MEAN_MOTION":14.45650074,"ECCENTRICITY":0.0065173,"INCLINATION":74.0096,"RA_OF_ASC_NODE":278.7688,"ARG_OF_PERICENTER":277.0631,"MEAN_ANOMALY":82.3118,"EPHEMERIS_TYPE":0,"CLASSIFICATION_TYPE":"U","NORAD_CAT_ID":2802,"ELEMENT_SET_NO":999,"REV_AT_EPOCH":9438,"BSTAR":5.677e-5,"MEAN_MOTION_DOT":1.77e-6,"MEAN_MOTION_DDOT":0},{"OBJECT_NAME":"SL-8 R/B","OBJECT_ID":"1968-040B","EPOCH":"2026-04-15T18:36:14.864256","MEAN_MOTION":15.03513074,"ECCENTRICITY":0.002358,"INCLINATION":74.0297,"RA_OF_ASC_NODE":237.8951,"ARG_OF_PERICENTER":46.4102,"MEAN_ANOMALY":313.9038,"EPHEMERIS_TYPE":0,"CLASSIFICATION_TYPE":"U","NORAD_CAT_ID":3230,"ELEMENT_SET_NO":999,"REV_AT_EPOCH":9558,"BSTAR":0.0001354,"MEAN_MOTION_DOT":1.814e-5,"MEAN_MOTION_DDOT":0},{"OBJECT_NAME":"OAO 2","OBJECT_ID":"1968-110A","EPOCH":"2026-04-15T13:16:35.612544","MEAN_MOTION":14.47327603,"ECCENTRICITY":0.00051884,"INCLINATION":34.9938,"RA_OF_ASC_NODE":59.3971,"ARG_OF_PERICENTER":138.7807,"MEAN_ANOMALY":221.3276,"EPHEMERIS_TYPE":0,"CLASSIFICATION_TYPE":"U","NORAD_CAT_ID":3597,"ELEMENT_SET_NO":999,"REV_AT_EPOCH":2444,"BSTAR":3.1416589e-5,"MEAN_MOTION_DOT":9.8e-7,"MEAN_MOTION_DDOT":0},{"OBJECT_NAME":"ISIS 1","OBJECT_ID":"1969-009A","EPOCH":"2026-04-15T02:13:14.499552","MEAN_MOTION":11.30422749,"ECCENTRICITY":0.17074486,"INCLINATION":88.4468,"RA_OF_ASC_NODE":151.3306,"ARG_OF_PERICENTER":15.7189,"MEAN_ANOMALY":349.0696,"EPHEMERIS_TYPE":0,"CLASSIFICATION_TYPE":"U","NORAD_CAT_ID":3669,"ELEMENT_SET_NO":999,"REV_AT_EPOCH":35264,"BSTAR":4.9659694e-5,"MEAN_MOTION_DOT":8.2e-7,"MEAN_MOTION_DDOT":0},{"OBJECT_NAME":"SERT 2","OBJECT_ID":"1970-009A","EPOCH":"2026-04-15T17:41:54.979296","MEAN_MOTION":13.58734327,"ECCENTRICITY":0.0005802,"INCLINATION":99.2805,"RA_OF_ASC_NODE":46.8138,"ARG_OF_PERICENTER":72.9306,"MEAN_ANOMALY":347.1047,"EPHEMERIS_TYPE":0,"CLASSIFICATION_TYPE":"U","NORAD_CAT_ID":4327,"ELEMENT_SET_NO":999,"REV_AT_EPOCH":78492,"BSTAR":6.0804e-5,"MEAN_MOTION_DOT":3.0e-8,"MEAN_MOTION_DDOT":0},{"OBJECT_NAME":"ASTEX 1","OBJECT_ID":"1971-089A","EPOCH":"2026-04-15T20:39:11.399040","MEAN_MOTION":14.508059,"ECCENTRICITY":0.0014029,"INCLINATION":92.7064,"RA_OF_ASC_NODE":163.7679,"ARG_OF_PERICENTER":326.2044,"MEAN_ANOMALY":33.8267,"EPHEMERIS_TYPE":0,"CLASSIFICATION_TYPE":"U","NORAD_CAT_ID":5560,"ELEMENT_SET_NO":999,"REV_AT_EPOCH":86769,"BSTAR":5.9066e-5,"MEAN_MOTION_DOT":2.32e-6,"MEAN_MOTION_DDOT":0},{"OBJECT_NAME":"SL-8 R/B","OBJECT_ID":"1971-119B","EPOCH":"2026-04-15T09:13:59.543616","MEAN_MOTION":14.38493358,"ECCENTRICITY":0.05456014,"INCLINATION":73.8833,"RA_OF_ASC_NODE":107.0912,"ARG_OF_PERICENTER":65.9491,"MEAN_ANOMALY":299.7755,"EPHEMERIS_TYPE":0,"CLASSIFICATION_TYPE":"U","NORAD_CAT_ID":5730,"ELEMENT_SET_NO":999,"REV_AT_EPOCH":66076,"BSTAR":0.00023711892,"MEAN_MOTION_DOT":4.52e-5,"MEAN_MOTION_DDOT":0},{"OBJECT_NAME":"OAO 3 (COPERNICUS)","OBJECT_ID":"1972-065A","EPOCH":"2026-04-15T16:25:27.567840","MEAN_MOTION":14.6002595,"ECCENTRICITY":0.0006045,"INCLINATION":35.0054,"RA_OF_ASC_NODE":86.5328,"ARG_OF_PERICENTER":105.2454,"MEAN_ANOMALY":60.3044,"EPHEMERIS_TYPE":0,"CLASSIFICATION_TYPE":"U","NORAD_CAT_ID":6153,"ELEMENT_SET_NO":999,"REV_AT_EPOCH":85160,"BSTAR":3.4953e-5,"MEAN_MOTION_DOT":1.49e-6,"MEAN_MOTION_DDOT":0},{"OBJECT_NAME":"ATLAS CENTAUR R/B","OBJECT_ID":"1972-065B","EPOCH":"2026-04-15T15:37:17.478336","MEAN_MOTION":14.77789215,"ECCENTRICITY":0.00339,"INCLINATION":35.0013,"RA_OF_ASC_NODE":89.1248,"ARG_OF_PERICENTER":320.397,"MEAN_ANOMALY":39.4255,"EPHEMERIS_TYPE":0,"CLASSIFICATION_TYPE":"U","NORAD_CAT_ID":6155,"ELEMENT_SET_NO":999,"REV_AT_EPOCH":84673,"BSTAR":9.3407e-5,"MEAN_MOTION_DOT":6.64e-6,"MEAN_MOTION_DDOT":0},{"OBJECT_NAME":"SL-8 R/B","OBJECT_ID":"1975-112B","EPOCH":"2026-04-15T20:32:48.291936","MEAN_MOTION":14.38223242,"ECCENTRICITY":0.0015057,"INCLINATION":74.0601,"RA_OF_ASC_NODE":310.5444,"ARG_OF_PERICENTER":29.4425,"MEAN_ANOMALY":330.7574,"EPHEMERIS_TYPE":0,"CLASSIFICATION_TYPE":"U","NORAD_CAT_ID":8459,"ELEMENT_SET_NO":999,"REV_AT_EPOCH":63721,"BSTAR":2.9741e-5,"MEAN_MOTION_DOT":6.4e-7,"MEAN_MOTION_DDOT":0}]
